PROGRESS-MS 32          
1 65586U 25204A   25330.93165932  .00010582  00000+0  19922-3 0  9995
2 65586  51.6311 220.7305 0003812 172.0243 188.0807 15.49107800   277
CYGNUS NG-23            
1 65616U 25208A   25330.93165932  .00010582  00000+0  19922-3 0  9993
2 65616  51.6311 220.7305 0003812 172.0243 188.0807 15.49107800   226
DRAGONFLY               
1 65729U 98067XH  25330.68694127  .00137012  00000+0  12763-2 0  9999
2 65729  51.6260 217.5966 0006226 186.0344 174.0577 15.66389378 10647
1998-067XJ              
1 65730U 98067XJ  25330.84817340  .01140080  62185-3  27963-2 0  9997
2 65730  51.6169 212.6170 0012124 195.3108 164.7535 15.95455520 10729
1998-067XK              
1 65731U 98067XK  25330.69518490  .00089423  00000+0  98665-3 0  9999
2 65731  51.6288 218.4094 0005977 160.1822 199.9405 15.62309161 10631
RSP-03                  
1 65732U 98067XL  25330.85201153  .00103208  00000+0  10514-2 0  9997
2 65732  51.6278 217.2008 0006870 162.8566 197.2662 15.64275681 10671
GHS-01                  
1 65733U 98067XM  25330.91575246  .00157246  00000+0  13618-2 0  9991
2 65733  51.6284 216.1284 0006808 184.8701 175.2231 15.68109550 10694
YOTSUBA-KULOVER         
1 65941U 98067XN  25330.67816370  .00067083  00000+0  91329-3 0  9996
2 65941  51.6299 220.5414 0002333 132.5292 227.5897 15.56918395  7359
BOTAN                   
1 65942U 98067XP  25330.71211888  .00097179  00000+0  12095-2 0  9996
2 65942  51.6290 220.0192 0004633 140.0582 220.0753 15.59139435  7363
E-KAGAKU-1              
1 65943U 98067XQ  25330.10018901  .00065773  00000+0  89891-3 0  9995
2 65943  51.6305 223.4334 0003913 118.0377 242.1011 15.56818438  7268
HRC MONOBLOCK CAMERA    
1 66052U 98067XR  25330.43906106  .00035084  00000+0  56311-3 0  9999
2 66052  51.6297 222.6917 0004661 119.7011 240.4444 15.52696422  6300
HTV-X1                  
1 66174U 25241A   25330.93165932  .00010582  00000+0  19922-3 0  9990
2 66174  51.6311 220.7305 0003812 172.0243 188.0807 15.49107800   518
